
# Worst residual: 16.34 km
# MJD 60507.000000 (2024 Jul 16  0:00)
1963-039A = NORAD 00674 = Vela I-A
1 00674U 63039A   24198.49919926  .00000000  00000-0  00000-0 0 21827
2 00674 045.5762 117.9056 3629241 085.7653 316.9242 00.22218737    07

# Worst residual: 14.52 km
# MJD 60508.000000 (2024 Jul 17  0:00)
1963-039A = NORAD 00674 = Vela I-A
1 00674U 63039A   24199.49919926  .00000000  00000-0  00000-0 0 21828
2 00674 045.5846 117.8957 3627317 085.6336 037.0154 00.22239834    02

# Worst residual: 1.68 km
# MJD 60509.000000 (2024 Jul 18  0:00)
1963-039A = NORAD 00674 = Vela I-A
1 00674U 63039A   24200.49919926  .00000000  00000-0  00000-0 0 21821
2 00674 045.5863 117.8722 3637445 085.7230 116.8408 00.22203543    04

# Worst residual: 8.49 km
# MJD 60510.000000 (2024 Jul 19  0:00)
1963-039A = NORAD 00674 = Vela I-A
1 00674U 63039A   24201.49919926  .00000000  00000-0  00000-0 0 21822
2 00674 045.5887 117.8349 3635527 085.6489 196.9653 00.22195885    09

# Worst residual: 5.99 km
# MJD 60511.000000 (2024 Jul 20  0:00)
1963-039A = NORAD 00674 = Vela I-A
1 00674U 63039A   24202.49919926  .00000000  00000-0  00000-0 0 21823
2 00674 045.5936 117.8012 3633653 085.4147 277.1919 00.22152889    02

# Worst residual: 16.45 km
# MJD 60512.000000 (2024 Jul 21  0:00)
1963-039A = NORAD 00674 = Vela I-A
1 00674U 63039A   24203.49919926  .00000000  00000-0  00000-0 0 21824
2 00674 045.5837 117.7738 3628332 085.5108 356.9324 00.22204538    07

# Worst residual: 19.94 km
# MJD 60513.000000 (2024 Jul 22  0:00)
1963-039A = NORAD 00674 = Vela I-A
1 00674U 63039A   24204.49919926  .00000000  00000-0  00000-0 0 21825
2 00674 045.5896 117.7426 3634039 085.6317 076.7412 00.22179960    05

# Worst residual: 9.14 km
# MJD 60514.000000 (2024 Jul 23  0:00)
1963-039A = NORAD 00674 = Vela I-A
1 00674U 63039A   24205.49919926  .00000000  00000-0  00000-0 0 21826
2 00674 045.5825 117.6939 3657646 085.7505 156.2244 00.22176170    01

# Worst residual: 10.48 km
# MJD 60515.000000 (2024 Jul 24  0:00)
1963-039A = NORAD 00674 = Vela I-A
1 00674U 63039A   24206.49919926  .00000000  00000-0  00000-0 0 21827
2 00674 045.5855 117.6632 3669696 085.5829 236.4620 00.22188648    01

# Worst residual: 9.65 km
# MJD 60516.000000 (2024 Jul 25  0:00)
1963-039A = NORAD 00674 = Vela I-A
1 00674U 63039A   24207.49919926  .00000000  00000-0  00000-0 0 21828
2 00674 045.5889 117.6430 3679209 085.3982 316.6228 00.22148918    04

# Worst residual: 12.07 km
# MJD 60517.000000 (2024 Jul 26  0:00)
1963-039A = NORAD 00674 = Vela I-A
1 00674U 63039A   24208.49919926  .00000000  00000-0  00000-0 0 21829
2 00674 045.6020 117.6560 3667224 085.3931 036.5361 00.22238890    09

# Worst residual: 5.22 km
# MJD 60518.000000 (2024 Jul 27  0:00)
1963-039A = NORAD 00674 = Vela I-A
1 00674U 63039A   24209.49919926  .00000000  00000-0  00000-0 0 21820
2 00674 045.5949 117.6294 3674436 085.4400 116.4736 00.22220275    09

# Worst residual: 1.65 km
# MJD 60519.000000 (2024 Jul 28  0:00)
1963-039A = NORAD 00674 = Vela I-A
1 00674U 63039A   24210.49919926  .00000000  00000-0  00000-0 0 21822
2 00674 045.5983 117.6002 3676163 085.4669 196.4346 00.22213205    00

# Worst residual: 6.63 km
# MJD 60520.000000 (2024 Jul 29  0:00)
1963-039A = NORAD 00674 = Vela I-A
1 00674U 63039A   24211.49919926  .00000000  00000-0  00000-0 0 21823
2 00674 045.6076 117.5621 3678667 085.4714 276.4320 00.22214766    06

# Worst residual: 15.19 km
# MJD 60521.000000 (2024 Jul 30  0:00)
1963-039A = NORAD 00674 = Vela I-A
1 00674U 63039A   24212.49919926  .00000000  00000-0  00000-0 0 21824
2 00674 045.6194 117.5360 3668609 085.4399 356.3968 00.22255081    02

# Worst residual: 13.55 km
# MJD 60522.000000 (2024 Jul 31  0:00)
1963-039A = NORAD 00674 = Vela I-A
1 00674U 63039A   24213.49919926  .00000000  00000-0  00000-0 0 21825
2 00674 045.6179 117.5148 3684602 085.3996 076.3456 00.22204946    07

# Worst residual: 3.20 km
# MJD 60523.000000 (2024 Aug  1  0:00)
1963-039A = NORAD 00674 = Vela I-A
1 00674U 63039A   24214.49919926  .00000000  00000-0  00000-0 0 21826
2 00674 045.6246 117.4950 3690918 085.4883 156.0850 00.22186092    00

# Worst residual: 11.14 km
# MJD 60524.000000 (2024 Aug  2  0:00)
1963-039A = NORAD 00674 = Vela I-A
1 00674U 63039A   24215.49919926  .00000000  00000-0  00000-0 0 21827
2 00674 045.6282 117.4903 3695598 085.3121 236.2984 00.22181112    08

# Worst residual: 11.10 km
# MJD 60525.000000 (2024 Aug  3  0:00)
1963-039A = NORAD 00674 = Vela I-A
1 00674U 63039A   24216.49919926  .00000000  00000-0  00000-0 0 21828
2 00674 045.6249 117.4720 3707239 085.0613 316.5113 00.22124460    06

# Worst residual: 4.76 km
# MJD 60526.000000 (2024 Aug  4  0:00)
1963-039A = NORAD 00674 = Vela I-A
1 00674U 63039A   24217.49919926  .00000000  00000-0  00000-0 0 21829
2 00674 045.6295 117.4480 3693416 085.2237 036.3053 00.22228292    03

# Worst residual: 6.53 km
# MJD 60527.000000 (2024 Aug  5  0:00)
1963-039A = NORAD 00674 = Vela I-A
1 00674U 63039A   24218.49919926  .00000000  00000-0  00000-0 0 21820
2 00674 045.6315 117.4225 3700839 085.3610 116.0665 00.22190194    01

# Worst residual: 5.37 km
# MJD 60528.000000 (2024 Aug  6  0:00)
1963-039A = NORAD 00674 = Vela I-A
1 00674U 63039A   24219.49919926  .00000000  00000-0  00000-0 0 21821
2 00674 045.6384 117.4081 3702538 085.3693 195.9326 00.22181828    00

# Worst residual: 15.70 km
# MJD 60529.000000 (2024 Aug  7  0:00)
1963-039A = NORAD 00674 = Vela I-A
1 00674U 63039A   24220.49919926  .00000000  00000-0  00000-0 0 21823
2 00674 045.6416 117.3882 3710040 085.1739 276.1562 00.22158620    08

# Worst residual: 21.31 km
# MJD 60530.000000 (2024 Aug  8  0:00)
1963-039A = NORAD 00674 = Vela I-A
1 00674U 63039A   24221.49919926  .00000000  00000-0  00000-0 0 21824
2 00674 045.6640 117.3715 3718728 085.2633 355.9833 00.22169888    02

# Worst residual: 6.87 km
# MJD 60531.000000 (2024 Aug  9  0:00)
1963-039A = NORAD 00674 = Vela I-A
1 00674U 63039A   24222.49919926  .00000000  00000-0  00000-0 0 21825
2 00674 045.6493 117.3716 3712115 085.2394 076.0020 00.22218671    01

# Worst residual: 3.80 km
# MJD 60532.000000 (2024 Aug 10  0:00)
1963-039A = NORAD 00674 = Vela I-A
1 00674U 63039A   24223.49919926  .00000000  00000-0  00000-0 0 21826
2 00674 045.6492 117.3407 3716535 085.3631 155.7559 00.22195647    01

# Worst residual: 0.67 km
# MJD 60533.000000 (2024 Aug 11  0:00)
1963-039A = NORAD 00674 = Vela I-A
1 00674U 63039A   24224.49919926  .00000000  00000-0  00000-0 0 21827
2 00674 045.6542 117.3105 3719263 085.3875 235.6365 00.22194904    01

# Worst residual: 10.49 km
# MJD 60534.000000 (2024 Aug 12  0:00)
1963-039A = NORAD 00674 = Vela I-A
1 00674U 63039A   24225.49919926  .00000000  00000-0  00000-0 0 21828
2 00674 045.6688 117.2757 3720033 085.4250 315.5190 00.22206974    04
